{
    "links": {
        "self": "http://www.neowsapp.com/rest/v1/neo/3402250?api_key=iIulBulltgU6a56xZRHN4H3l9WmuAYTsLGpBGhQ2"
    },
    "id": "3402250",
    "neo_reference_id": "3402250",
    "name": "(2008 CL70)",
    "designation": "2008 CL70",
    "nasa_jpl_url": "http://ssd.jpl.nasa.gov/sbdb.cgi?sstr=3402250",
    "absolute_magnitude_h": 23.0,
    "estimated_diameter": {
        "kilometers": {
            "estimated_diameter_min": 0.0667659413,
            "estimated_diameter_max": 0.1492931834
        },
        "meters": {
            "estimated_diameter_min": 66.7659413495,
            "estimated_diameter_max": 149.2931834393
        },
        "miles": {
            "estimated_diameter_min": 0.0414864197,
            "estimated_diameter_max": 0.0927664547
        },
        "feet": {
            "estimated_diameter_min": 219.0483710172,
            "estimated_diameter_max": 489.807047955
        }
    },
    "is_potentially_hazardous_asteroid": false,
    "close_approach_data": [
        {
            "close_approach_date": "2008-02-01",
            "close_approach_date_full": "2008-Feb-01 20:27",
            "epoch_date_close_approach": 1201897620000,
            "relative_velocity": {
                "kilometers_per_second": "19.5907251105",
                "kilometers_per_hour": "70526.6103977219",
                "miles_per_hour": "43822.4929996289"
            },
            "miss_distance": {
                "astronomical": "0.0915326011",
                "lunar": "35.6061818279",
                "kilometers": "13693082.160119657",
                "miles": "8508486.7105269866"
            },
            "orbiting_body": "Earth"
        }
    ],
    "orbital_data": {
        "orbit_id": "9",
        "orbit_determination_date": "2017-04-06 09:04:24",
        "first_observation_date": "2008-02-09",
        "last_observation_date": "2008-02-16",
        "data_arc_in_days": 7,
        "observations_used": 36,
        "orbit_uncertainty": "9",
        "minimum_orbit_intersection": ".0738976",
        "jupiter_tisserand_invariant": "3.252",
        "epoch_osculation": "2454508.5",
        "eccentricity": ".6755787050965232",
        "semi_major_axis": "2.205907849059356",
        "inclination": "21.48145969339222",
        "ascending_node_longitude": "144.2519710103581",
        "orbital_period": "1196.6839764158",
        "perihelion_distance": ".7156434808295795",
        "perihelion_argument": "274.7651396707076",
        "aphelion_distance": "3.696172217289132",
        "perihelion_time": "2454451.706864041162",
        "mean_anomaly": "17.0851530964911",
        "mean_motion": ".3008313030798989",
        "equinox": "J2000",
        "orbit_class": {
            "orbit_class_type": "APO",
            "orbit_class_description": "Near-Earth asteroid orbits which cross the Earth’s orbit similar to that of 1862 Apollo",
            "orbit_class_range": "a (semi-major axis) > 1.0 AU; q (perihelion) < 1.017 AU"
        }
    },
    "is_sentry_object": false
}